CCSDS_OMM_VERS = 2.0
CREATION_DATE  = 
ORIGINATOR     = 

OBJECT_NAME    = COSMOS 2058
OBJECT_ID      = 1990-010A
CENTER_NAME    = EARTH
REF_FRAME      = TEME
TIME_SYSTEM    = UTC
MEAN_ELEMENT_THEORY = SGP/SGP4

EPOCH          = 2026-04-01T06:57:47.962080
MEAN_MOTION    = 15.11536996
ECCENTRICITY   = .0007677
INCLINATION    = 82.4713
RA_OF_ASC_NODE = 25.1585
ARG_OF_PERICENTER = 251.7792
MEAN_ANOMALY   = 108.2602

EPHEMERIS_TYPE = 0
CLASSIFICATION_TYPE = U
NORAD_CAT_ID   = 20465
ELEMENT_SET_NO = 999
REV_AT_EPOCH   = 94565
BSTAR          = .30802E-3
MEAN_MOTION_DOT = .525E-4
MEAN_MOTION_DDOT = 0

CCSDS_OMM_VERS = 2.0
CREATION_DATE  = 
ORIGINATOR     = 

OBJECT_NAME    = SL-14 R/B
OBJECT_ID      = 1990-010B
CENTER_NAME    = EARTH
REF_FRAME      = TEME
TIME_SYSTEM    = UTC
MEAN_ELEMENT_THEORY = SGP/SGP4

EPOCH          = 2026-04-01T09:59:25.566432
MEAN_MOTION    = 14.83590676
ECCENTRICITY   = .0018815
INCLINATION    = 82.5001
RA_OF_ASC_NODE = 246.0351
ARG_OF_PERICENTER = 221.8415
MEAN_ANOMALY   = 138.1363

EPHEMERIS_TYPE = 0
CLASSIFICATION_TYPE = U
NORAD_CAT_ID   = 20466
ELEMENT_SET_NO = 999
REV_AT_EPOCH   = 93185
BSTAR          = .65933E-4
MEAN_MOTION_DOT = .568E-5
MEAN_MOTION_DDOT = 0

CCSDS_OMM_VERS = 2.0
CREATION_DATE  = 
ORIGINATOR     = 

OBJECT_NAME    = SL-14 R/B
OBJECT_ID      = 1990-018B
CENTER_NAME    = EARTH
REF_FRAME      = TEME
TIME_SYSTEM    = UTC
MEAN_ELEMENT_THEORY = SGP/SGP4

EPOCH          = 2026-04-01T09:19:15.772800
MEAN_MOTION    = 14.82167453
ECCENTRICITY   = .0016668
INCLINATION    = 82.5239
RA_OF_ASC_NODE = 201.8784
ARG_OF_PERICENTER = 22.2305
MEAN_ANOMALY   = 337.9628

EPHEMERIS_TYPE = 0
CLASSIFICATION_TYPE = U
NORAD_CAT_ID   = 20511
ELEMENT_SET_NO = 999
REV_AT_EPOCH   = 92594
BSTAR          = .58977E-4
MEAN_MOTION_DOT = .494E-5
MEAN_MOTION_DDOT = 0

CCSDS_OMM_VERS = 2.0
CREATION_DATE  = 
ORIGINATOR     = 

OBJECT_NAME    = HST
OBJECT_ID      = 1990-037B
CENTER_NAME    = EARTH
REF_FRAME      = TEME
TIME_SYSTEM    = UTC
MEAN_ELEMENT_THEORY = SGP/SGP4

EPOCH          = 2026-04-01T12:23:53.875392
MEAN_MOTION    = 15.29849412
ECCENTRICITY   = .0001988
INCLINATION    = 28.4720
RA_OF_ASC_NODE = 244.2399
ARG_OF_PERICENTER = 30.6605
MEAN_ANOMALY   = 329.4107

EPHEMERIS_TYPE = 0
CLASSIFICATION_TYPE = U
NORAD_CAT_ID   = 20580
ELEMENT_SET_NO = 999
REV_AT_EPOCH   = 77681
BSTAR          = .30432E-3
MEAN_MOTION_DOT = .929E-4
MEAN_MOTION_DDOT = 0

CCSDS_OMM_VERS = 2.0
CREATION_DATE  = 
ORIGINATOR     = 

OBJECT_NAME    = SL-16 R/B
OBJECT_ID      = 1990-046B
CENTER_NAME    = EARTH
REF_FRAME      = TEME
TIME_SYSTEM    = UTC
MEAN_ELEMENT_THEORY = SGP/SGP4

EPOCH          = 2026-04-01T09:20:31.764192
MEAN_MOTION    = 14.15018211
ECCENTRICITY   = .0016452
INCLINATION    = 70.9982
RA_OF_ASC_NODE = 250.2358
ARG_OF_PERICENTER = 270.0160
MEAN_ANOMALY   = 89.9077

EPHEMERIS_TYPE = 0
CLASSIFICATION_TYPE = U
NORAD_CAT_ID   = 20625
ELEMENT_SET_NO = 999
REV_AT_EPOCH   = 85160
BSTAR          = .82665E-4
MEAN_MOTION_DOT = .113E-5
MEAN_MOTION_DDOT = 0

CCSDS_OMM_VERS = 2.0
CREATION_DATE  = 
ORIGINATOR     = 

OBJECT_NAME    = COSMOS 2084
OBJECT_ID      = 1990-055A
CENTER_NAME    = EARTH
REF_FRAME      = TEME
TIME_SYSTEM    = UTC
MEAN_ELEMENT_THEORY = SGP/SGP4

EPOCH          = 2026-04-01T10:26:03.372864
MEAN_MOTION    = 15.05783047
ECCENTRICITY   = .0013423
INCLINATION    = 62.7892
RA_OF_ASC_NODE = 257.9924
ARG_OF_PERICENTER = 197.5570
MEAN_ANOMALY   = 162.5069

EPHEMERIS_TYPE = 0
CLASSIFICATION_TYPE = U
NORAD_CAT_ID   = 20663
ELEMENT_SET_NO = 999
REV_AT_EPOCH   = 93974
BSTAR          = .22448E-3
MEAN_MOTION_DOT = .3073E-4
MEAN_MOTION_DDOT = 0

CCSDS_OMM_VERS = 2.0
CREATION_DATE  = 
ORIGINATOR     = 

OBJECT_NAME    = SL-6 R/B(2)
OBJECT_ID      = 1990-055D
CENTER_NAME    = EARTH
REF_FRAME      = TEME
TIME_SYSTEM    = UTC
MEAN_ELEMENT_THEORY = SGP/SGP4

EPOCH          = 2026-04-01T12:21:46.395648
MEAN_MOTION    = 15.03705924
ECCENTRICITY   = .0028549
INCLINATION    = 62.7834
RA_OF_ASC_NODE = 176.2229
ARG_OF_PERICENTER = 352.1504
MEAN_ANOMALY   = 7.9144

EPHEMERIS_TYPE = 0
CLASSIFICATION_TYPE = U
NORAD_CAT_ID   = 20666
ELEMENT_SET_NO = 999
REV_AT_EPOCH   = 94162
BSTAR          = .17774E-3
MEAN_MOTION_DOT = .2266E-4
MEAN_MOTION_DDOT = 0

CCSDS_OMM_VERS = 2.0
CREATION_DATE  = 
ORIGINATOR     = 

OBJECT_NAME    = SL-8 R/B
OBJECT_ID      = 1990-078B
CENTER_NAME    = EARTH
REF_FRAME      = TEME
TIME_SYSTEM    = UTC
MEAN_ELEMENT_THEORY = SGP/SGP4

EPOCH          = 2026-04-01T10:00:21.708288
MEAN_MOTION    = 14.89731470
ECCENTRICITY   = .0357927
INCLINATION    = 82.9033
RA_OF_ASC_NODE = 230.8570
ARG_OF_PERICENTER = 297.3117
MEAN_ANOMALY   = 59.2079

EPHEMERIS_TYPE = 0
CLASSIFICATION_TYPE = U
NORAD_CAT_ID   = 20775
ELEMENT_SET_NO = 999
REV_AT_EPOCH   = 81268
BSTAR          = .33166E-3
MEAN_MOTION_DOT = .11197E-3
MEAN_MOTION_DDOT = 0

CCSDS_OMM_VERS = 2.0
CREATION_DATE  = 
ORIGINATOR     = 

OBJECT_NAME    = SL-8 R/B
OBJECT_ID      = 1991-006B
CENTER_NAME    = EARTH
REF_FRAME      = TEME
TIME_SYSTEM    = UTC
MEAN_ELEMENT_THEORY = SGP/SGP4

EPOCH          = 2026-04-01T10:07:34.308768
MEAN_MOTION    = 13.77497893
ECCENTRICITY   = .0021611
INCLINATION    = 82.9439
RA_OF_ASC_NODE = 153.1450
ARG_OF_PERICENTER = 334.8762
MEAN_ANOMALY   = 35.2911

EPHEMERIS_TYPE = 0
CLASSIFICATION_TYPE = U
NORAD_CAT_ID   = 21088
ELEMENT_SET_NO = 999
REV_AT_EPOCH   = 76720
BSTAR          = .10559E-3
MEAN_MOTION_DOT = .12E-5
MEAN_MOTION_DDOT = 0

CCSDS_OMM_VERS = 2.0
CREATION_DATE  = 
ORIGINATOR     = 

OBJECT_NAME    = OKEAN-3
OBJECT_ID      = 1991-039A
CENTER_NAME    = EARTH
REF_FRAME      = TEME
TIME_SYSTEM    = UTC
MEAN_ELEMENT_THEORY = SGP/SGP4

EPOCH          = 2026-04-01T05:16:45.352704
MEAN_MOTION    = 15.04935022
ECCENTRICITY   = .0012518
INCLINATION    = 82.5154
RA_OF_ASC_NODE = 315.0126
ARG_OF_PERICENTER = 253.6565
MEAN_ANOMALY   = 106.3286

EPHEMERIS_TYPE = 0
CLASSIFICATION_TYPE = U
NORAD_CAT_ID   = 21397
ELEMENT_SET_NO = 999
REV_AT_EPOCH   = 86842
BSTAR          = .21008E-3
MEAN_MOTION_DOT = .3007E-4
MEAN_MOTION_DDOT = 0

CCSDS_OMM_VERS = 2.0
CREATION_DATE  = 
ORIGINATOR     = 

OBJECT_NAME    = COSMOS 2151
OBJECT_ID      = 1991-042A
CENTER_NAME    = EARTH
REF_FRAME      = TEME
TIME_SYSTEM    = UTC
MEAN_ELEMENT_THEORY = SGP/SGP4

EPOCH          = 2026-04-01T11:53:12.833088
MEAN_MOTION    = 15.00205695
ECCENTRICITY   = .0011975
INCLINATION    = 82.4951
RA_OF_ASC_NODE = 61.6703
ARG_OF_PERICENTER = 351.2857
MEAN_ANOMALY   = 8.8157

EPHEMERIS_TYPE = 0
CLASSIFICATION_TYPE = U
NORAD_CAT_ID   = 21422
ELEMENT_SET_NO = 999
REV_AT_EPOCH   = 86661
BSTAR          = .18082E-3
MEAN_MOTION_DOT = .2289E-4
MEAN_MOTION_DDOT = 0

CCSDS_OMM_VERS = 2.0
CREATION_DATE  = 
ORIGINATOR     = 

OBJECT_NAME    = SL-14 R/B
OBJECT_ID      = 1991-042B
CENTER_NAME    = EARTH
REF_FRAME      = TEME
TIME_SYSTEM    = UTC
MEAN_ELEMENT_THEORY = SGP/SGP4

EPOCH          = 2026-04-01T09:05:22.241760
MEAN_MOTION    = 14.81852540
ECCENTRICITY   = .001752
INCLINATION    = 82.4957
RA_OF_ASC_NODE = 198.9114
ARG_OF_PERICENTER = 161.9758
MEAN_ANOMALY   = 198.2081

EPHEMERIS_TYPE = 0
CLASSIFICATION_TYPE = U
NORAD_CAT_ID   = 21423
ELEMENT_SET_NO = 999
REV_AT_EPOCH   = 85643
BSTAR          = .61547E-4
MEAN_MOTION_DOT = .511E-5
MEAN_MOTION_DDOT = 0

