{"fetched_at":"2026-04-02T05:43:41Z","count":6320,"tles":[{"name":"HST","line1":"1 20580U 90037B   26091.51659578  .00009290  00000+0  30432-3 0  9992","line2":"2 20580  28.4720 244.2399 0001988  30.6605 329.4107 15.29849412776819","category":"Other"},{"name":"SL-14 R/B","line1":"1 20511U 90018B   26091.38837700  .00000494  00000+0  58977-4 0  9997","line2":"2 20511  82.5239 201.8784 0016668  22.2305 337.9628 14.82167453925949","category":"Other"},{"name":"SL-14 R/B","line1":"1 21423U 91042B   26091.37872965  .00000511  00000+0  61547-4 0  9996","line2":"2 21423  82.4957 198.9114 0017520 161.9758 198.2081 14.81852540856437","category":"Other"},{"name":"SL-8 R/B","line1":"1 21088U 91006B   26091.42192487  .00000120  00000+0  10559-3 0  9995","line2":"2 21088  82.9439 153.1450 0021611 334.8762  35.2911 13.77497893767200","category":"Other"},{"name":"SL-16 R/B","line1":"1 20625U 90046B   26091.38925653  .00000113  00000+0  82665-4 0  9998","line2":"2 20625  70.9982 250.2358 0016452 270.0160  89.9077 14.15018211851605","category":"Other"},{"name":"COSMOS 2084","line1":"1 20663U 90055A   26091.43476126  .00003073  00000+0  22448-3 0  9992","line2":"2 20663  62.7892 257.9924 0013423 197.5570 162.5069 15.05783047939749","category":"Other"},{"name":"SL-6 R/B(2)","line1":"1 20666U 90055D   26091.51512032  .00002266  00000+0  17774-3 0  9990","line2":"2 20666  62.7834 176.2229 0028549 352.1504   7.9144 15.03705924941622","category":"Other"},{"name":"COSMOS 2058","line1":"1 20465U 90010A   26091.29013845  .00005250  00000+0  30802-3 0  9994","line2":"2 20465  82.4713  25.1585 0007677 251.7792 108.2602 15.11536996945654","category":"Other"},{"name":"SL-14 R/B","line1":"1 20466U 90010B   26091.41626813  .00000568  00000+0  65933-4 0  9995","line2":"2 20466  82.5001 246.0351 0018815 221.8415 138.1363 14.83590676931853","category":"Other"},{"name":"OKEAN-3","line1":"1 21397U 91039A   26091.21996936  .00003007  00000+0  21008-3 0  9990","line2":"2 21397  82.5154 315.0126 0012518 253.6565 106.3286 15.04935022868421","category":"Other"},{"name":"COSMOS 2151","line1":"1 21422U 91042A   26091.49528742  .00002289  00000+0  18082-3 0  9998","line2":"2 21422  82.4951  61.6703 0011975 351.2857   8.8157 15.00205695866618","category":"Other"},{"name":"SL-8 R/B","line1":"1 20775U 90078B   26091.41691792  .00011197  00000+0  33166-3 0  9992","line2":"2 20775  82.9033 230.8570 0357927 297.3117  59.2079 14.89731470812687","category":"Other"}]}